[{"OBJECT_NAME":"STARLINK-5870","OBJECT_ID":"2023-094E","EPOCH":"2026-03-09T22:00:01.999584","MEAN_MOTION":15.17627089,"ECCENTRICITY":0.000139,"INCLINATION":43.0022,"RA_OF_ASC_NODE":28.7454,"ARG_OF_PERICENTER":216.1153,"MEAN_ANOMALY":310.5212,"EPHEMERIS_TYPE":0,"CLASSIFICATION_TYPE":"U","NORAD_CAT_ID":57222,"ELEMENT_SET_NO":999,"REV_AT_EPOCH":577,"BSTAR":0.059561857,"MEAN_MOTION_DOT":0.01324539,"MEAN_MOTION_DDOT":0},{"OBJECT_NAME":"KUIPER-00159","OBJECT_ID":"2026-030A","EPOCH":"2026-03-09T15:10:26.374944","MEAN_MOTION":15.35788737,"ECCENTRICITY":0.0005012,"INCLINATION":51.8841,"RA_OF_ASC_NODE":219.4438,"ARG_OF_PERICENTER":44.9181,"MEAN_ANOMALY":315.221,"EPHEMERIS_TYPE":0,"CLASSIFICATION_TYPE":"U","NORAD_CAT_ID":67764,"ELEMENT_SET_NO":999,"REV_AT_EPOCH":508,"BSTAR":0.00076096,"MEAN_MOTION_DOT":0.0002662,"MEAN_MOTION_DDOT":0}]
